{
  "type": "FeatureCollection",
  "name": "agua",
  "crs": {
    "type": "name",
    "properties": { "name": "urn:ogc:def:crs:OGC:1.3:CRS84" }
  },
  "features": [
    {
      "type": "Feature",
      "properties": {},
      "geometry": {
        "type": "MultiPolygon",
        "coordinates": [
          [
            [
              [-100.244445431063028, 25.664025629108679],
              [-100.244444174593852, 25.664031475320932],
              [-100.244348934566432, 25.664295611986113],
              [-100.244244644896042, 25.664603848049161],
              [-100.244218037509128, 25.664819689711599],
              [-100.244214507120006, 25.664829283851109],
              [-100.244117437876426, 25.664978661517836],
              [-100.244095921666073, 25.665228621437489],
              [-100.244094255534833, 25.665235345582815],
              [-100.243877770999418, 25.665750565248061],
              [-100.243836648856515, 25.666001297937747],
              [-100.243835396468938, 25.666005844738045],
              [-100.243765079632126, 25.666185054095759],
              [-100.24370922648356, 25.666414877303264],
              [-100.243707142451555, 25.666420292349805],
              [-100.243624046502717, 25.666574491866704],
              [-100.243620254586276, 25.666579700100506],
              [-100.243615117677066, 25.666583867770523],
              [-100.242816660692611, 25.667080783850654],
              [-100.242859072714097, 25.667133346045194],
              [-100.242873711713699, 25.667151488488997],
              [-100.242828584482126, 25.66717815701557],
              [-100.242756826751119, 25.667089226027588],
              [-100.242752954730662, 25.667082343100336],
              [-100.242751673462223, 25.667074712844276],
              [-100.242753112273149, 25.667067105434491],
              [-100.242757125934219, 25.667060288740178],
              [-100.242763309318505, 25.667054950818208],
              [-100.243578660539455, 25.666547520554371],
              [-100.243657261023301, 25.666401663155458],
              [-100.243712787869285, 25.666173182586032],
              [-100.243713705805646, 25.66617028116351],
              [-100.24378371119883, 25.665991865528884],
              [-100.243824877348828, 25.665740864496058],
              [-100.243826334510956, 25.665735813587226],
              [-100.244042482908768, 25.665221393846551],
              [-100.244064180232215, 25.664969329867116],
              [-100.244067794703028, 25.664958932256845],
              [-100.244165101321897, 25.664809189273658],
              [-100.244191352235603, 25.66459623933962],
              [-100.244192359453265, 25.664591836156216],
              [-100.244297451388562, 25.664281228903722],
              [-100.244297598946204, 25.664280806617089],
              [-100.244391886118322, 25.66401931255098],
              [-100.244429428171387, 25.663637169175477],
              [-100.244434770318207, 25.663586060816247],
              [-100.244482205751126, 25.66359844338394],
              [-100.244445431063028, 25.664025629108679]
            ]
          ]
        ]
      }
    }
  ]
}
