{
  "type": "FeatureCollection",
  "name": "asfalto",
  "crs": {
    "type": "name",
    "properties": { "name": "urn:ogc:def:crs:OGC:1.3:CRS84" }
  },
  "features": [
    {
      "type": "Feature",
      "properties": { "fid": 1 },
      "geometry": {
        "type": "MultiPolygon",
        "coordinates": [
          [
            [
              [-100.245712674246931, 25.665411589743716],
              [-100.245503983751291, 25.665526720355984],
              [-100.245439342372464, 25.665452568353679],
              [-100.245476383461977, 25.665112534426836],
              [-100.245542666003701, 25.665117043344974],
              [-100.245559483595756, 25.66491910387191],
              [-100.245560821109734, 25.66490336160334],
              [-100.24563171672709, 25.664068931578957],
              [-100.245235924407723, 25.664033256880465],
              [-100.245237723463688, 25.663918124826189],
              [-100.245025434856032, 25.663835424267894],
              [-100.24508840181592, 25.663788398434654],
              [-100.246714748437341, 25.664210008691139],
              [-100.246725052425006, 25.664216139323674],
              [-100.246735236213524, 25.664222431012362],
              [-100.246745296704631, 25.664228881843005],
              [-100.246755230837564, 25.664235489853017],
              [-100.246765035590016, 25.664242253031997],
              [-100.246774707979071, 25.664249169322307],
              [-100.246784245061988, 25.664256236619753],
              [-100.246793643937337, 25.66426345277419],
              [-100.246802901745596, 25.664270815590182],
              [-100.246812015670216, 25.664278322827684],
              [-100.246820982938431, 25.664285972202695],
              [-100.246829800822113, 25.664293761387988],
              [-100.246838466638522, 25.664301688013797],
              [-100.246846977751218, 25.664309749668536],
              [-100.246855331570842, 25.66431794389954],
              [-100.246863525555852, 25.664326268213809],
              [-100.246871557213368, 25.664334720078777],
              [-100.246879424099873, 25.664343296923064],
              [-100.246887123821992, 25.664351996137267],
              [-100.246894654037192, 25.664360815074758],
              [-100.246897410020836, 25.664365127242128],
              [-100.246900083268514, 25.664369481518392],
              [-100.246902672988497, 25.664373876614007],
              [-100.246905178413868, 25.664378311227338],
              [-100.246907598802608, 25.664382784045053],
              [-100.246909933437905, 25.6643872937425],
              [-100.246912181628346, 25.664391838984116],
              [-100.246914342708138, 25.664396418423792],
              [-100.246916416037251, 25.664401030705303],
              [-100.246918401001679, 25.664405674462703],
              [-100.246920297013546, 25.664410348320715],
              [-100.246922103511338, 25.664415050895148],
              [-100.246923819960074, 25.664419780793313],
              [-100.246925445851375, 25.664424536614426],
              [-100.24692698070379, 25.664429316950024],
              [-100.246928424062702, 25.664434120384392],
              [-100.246929775500703, 25.664438945494965],
              [-100.246931034617532, 25.664443790852758],
              [-100.246932201040295, 25.664448655022792],
              [-100.246933274423569, 25.66445353656453],
              [-100.246934254449442, 25.664458434032266],
              [-100.246935140827702, 25.664463345975598],
              [-100.246935933295816, 25.664468270939832],
              [-100.246936631619121, 25.664473207466411],
              [-100.246937235590778, 25.664478154093352],
              [-100.246937745031929, 25.664483109355704],
              [-100.246938159791711, 25.664488071785932],
              [-100.246938479747286, 25.664493039914394],
              [-100.246938704803881, 25.664498012269743],
              [-100.246938834894848, 25.664502987379407],
              [-100.24693886998169, 25.664507963769978],
              [-100.24693881005399, 25.664512939967679],
              [-100.246938655129483, 25.664517914498777],
              [-100.246938405254085, 25.664522885890054],
              [-100.246938060501776, 25.664527852669206],
              [-100.246937620974649, 25.664532813365291],
              [-100.246937086802888, 25.664537766509191],
              [-100.246936458144702, 25.664542710633999],
              [-100.246935735186241, 25.664547644275494],
              [-100.246934918141619, 25.664552565972567],
              [-100.246934007252833, 25.664557474267625],
              [-100.246933002789618, 25.664562367707056],
              [-100.246931905049451, 25.664567244841653],
              [-100.246930714357461, 25.664572104227027],
              [-100.246929431066235, 25.664576944424052],
              [-100.24692805555587, 25.664581763999294],
              [-100.246926588233706, 25.664586561525404],
              [-100.246925029534296, 25.664591335581573],
              [-100.246923379919252, 25.66459608475396],
              [-100.246921639877158, 25.664600807636063],
              [-100.24691534724478, 25.66461176947556],
              [-100.246908848759162, 25.664622633301764],
              [-100.246902146298751, 25.664633395974381],
              [-100.246895241800985, 25.664644054382361],
              [-100.246888137261649, 25.664654605444795],
              [-100.246880834734455, 25.664665046111793],
              [-100.246873336330253, 25.664675373365398],
              [-100.246865644216541, 25.664685584220411],
              [-100.246857760616834, 25.664695675725302],
              [-100.246849687809984, 25.664705644963025],
              [-100.246841428129514, 25.66471548905189],
              [-100.246832983962989, 25.664725205146368],
              [-100.246824357751294, 25.664734790437954],
              [-100.246815551987936, 25.664744242155919],
              [-100.24680656921835, 25.664753557568176],
              [-100.246797412039086, 25.664762733982016],
              [-100.24678808309713, 25.664771768744924],
              [-100.246778585089174, 25.664780659245334],
              [-100.246768920760644, 25.664789402913364],
              [-100.246759092905222, 25.664797997221587],
              [-100.246749104363715, 25.664806439685744],
              [-100.246738958023428, 25.664814727865483],
              [-100.246728656817311, 25.664822859365028],
              [-100.24671820372302, 25.66483083183391],
              [-100.246707601762168, 25.664838642967627],
              [-100.246696853999381, 25.664846290508304],
              [-100.246685963541395, 25.664853772245358],
              [-100.245712674246931, 25.665411589743716]
            ]
          ]
        ]
      }
    },
    {
      "type": "Feature",
      "properties": { "fid": 2 },
      "geometry": {
        "type": "MultiPolygon",
        "coordinates": [
          [
            [
              [-100.242982438638705, 25.663734201163855],
              [-100.24297968416613, 25.663747639859736],
              [-100.242952424779077, 25.663881373055524],
              [-100.24294303704751, 25.664065111249293],
              [-100.242926611153393, 25.664203826436104],
              [-100.243330049460766, 25.664241528051839],
              [-100.243316556540776, 25.664368010804665],
              [-100.24314278898035, 25.664351980472603],
              [-100.242877450158005, 25.664325184118848],
              [-100.242825751576476, 25.664630401279915],
              [-100.2428578663785, 25.664725121121478],
              [-100.242763684144577, 25.665211732466151],
              [-100.242689473084695, 25.66518862521367],
              [-100.242786622108554, 25.664734992455561],
              [-100.242704315296692, 25.664720398343544],
              [-100.242795729829581, 25.664316931247566],
              [-100.242833518610055, 25.66413591134733],
              [-100.242912168562142, 25.663730448250337],
              [-100.242911768941482, 25.663730426907801],
              [-100.242916149268282, 25.663709926566646],
              [-100.242981932125375, 25.66340205618884],
              [-100.243018363009284, 25.663244255493879],
              [-100.243197818845005, 25.663291686938589],
              [-100.243189617333655, 25.663463028969122],
              [-100.243704253108206, 25.663482324670309],
              [-100.2439384620304, 25.663564355507717],
              [-100.243929284512262, 25.663754615476744],
              [-100.243914742659896, 25.66375475062878],
              [-100.243663919457461, 25.663742223475303],
              [-100.243618508530048, 25.663738965378453],
              [-100.243615941390686, 25.663768034635826],
              [-100.242982438638705, 25.663734201163855]
            ]
          ]
        ]
      }
    },
    {
      "type": "Feature",
      "properties": { "fid": 3 },
      "geometry": {
        "type": "MultiPolygon",
        "coordinates": [
          [
            [
              [-100.242321791015314, 25.666550729290407],
              [-100.24213558871962, 25.667584458605496],
              [-100.242240833495444, 25.66752608354178],
              [-100.242257024999404, 25.667389874948601],
              [-100.243166447805976, 25.666819499774533],
              [-100.243031518606188, 25.666796392833643],
              [-100.242528232690972, 25.666701532713571],
              [-100.242421638623156, 25.666572620121723],
              [-100.242321791015314, 25.666550729290407]
            ]
          ]
        ]
      }
    }
  ]
}
