{
"type": "FeatureCollection",
"name": "caminos",
"crs": { "type": "name", "properties": { "name": "urn:ogc:def:crs:OGC:1.3:CRS84" } },
"features": [
{"type":"Feature","properties":{"fid":4},"geometry":{"type":"Polygon","coordinates":[[[-100.243618508530048,25.663738965378453],[-100.243663919457461,25.663742223475307],[-100.243642167068757,25.663982790109511],[-100.243917408759586,25.664000812344295],[-100.243929749975635,25.663744965920706],[-100.2439384620304,25.66356435550772],[-100.243972581418518,25.66356569262074],[-100.243963697656554,25.663749862723702],[-100.244007869700724,25.663751593789993],[-100.244010470049645,25.66370674161692],[-100.244114541850323,25.663711643573158],[-100.244111989134396,25.66375567414546],[-100.24411201176963,25.663755675032515],[-100.244110601091066,25.66378491991447],[-100.244110294279139,25.663784907890765],[-100.244108965016679,25.663807835701302],[-100.244105766979985,25.663862997062807],[-100.244137556595547,25.663864781912398],[-100.244136926933024,25.663873617933032],[-100.2442216457423,25.663878510327173],[-100.244220988108609,25.663887762199092],[-100.244136267643356,25.663882869709699],[-100.244126907481501,25.664014220361487],[-100.24462389544756,25.664042993122038],[-100.24462944006082,25.663961371139742],[-100.244630143608305,25.66394693220764],[-100.244632646900598,25.663909607073094],[-100.244656327495704,25.663911349874581],[-100.24465387807129,25.663947871767324],[-100.244709082015788,25.663950057087494],[-100.244708378468303,25.663964496019215],[-100.244652910392489,25.66396230024333],[-100.244647413884636,25.66404435470502],[-100.244645384326333,25.664072835481456],[-100.244632705391027,25.664263564855933],[-100.245528176256428,25.664323798452415],[-100.246292093288503,25.664375183093167],[-100.246288384659366,25.664419976066558],[-100.246088779843447,25.664406549714599],[-100.246083170163899,25.664489978041999],[-100.246225776963954,25.66449776822504],[-100.246253900821145,25.664499304547082],[-100.246251639140553,25.664532940711894],[-100.246237988606566,25.664735953973139],[-100.24620986474936,25.664734417654152],[-100.246223515281443,25.664531404390015],[-100.246173757805906,25.664528686288701],[-100.246033258958022,25.664521011259755],[-100.245737561778256,25.664504858210968],[-100.245739823458862,25.664471222038234],[-100.245984388977448,25.664484581921176],[-100.245990147310422,25.664398942785418],[-100.245540844723493,25.66436969303226],[-100.245492457566812,25.664885911442987],[-100.245763231903297,25.66490653126122],[-100.245760617730738,25.66493442049444],[-100.245741421823752,25.664932958701524],[-100.245741447332222,25.664932960644027],[-100.245627300100594,25.664924268185718],[-100.245559483595756,25.66491910387191],[-100.245489843394253,25.664913800681035],[-100.245447212897119,25.665368602207845],[-100.24544242070499,25.665419727383942],[-100.245439342372478,25.665452568353682],[-100.245394808094588,25.66544882749961],[-100.245397853887795,25.66541633357739],[-100.245163678814436,25.665398500917387],[-100.245168471006579,25.665347375732189],[-100.245402646067689,25.665365208398907],[-100.24541159389382,25.66526974887579],[-100.24521772213113,25.66525498536798],[-100.245112839787154,25.665246998483084],[-100.244912929434776,25.665231775128341],[-100.244914115483084,25.665219121805773],[-100.244917031660691,25.665188010603117],[-100.244669568767804,25.665169166069091],[-100.244667984917513,25.665202408487659],[-100.24459467338562,25.665199570754915],[-100.244598527149662,25.665118686569599],[-100.244331271202867,25.665101480232032],[-100.244331271202853,25.665101480232124],[-100.244313308039679,25.665100323736723],[-100.244313308039679,25.66510032373672],[-100.244332874787034,25.66485341508174],[-100.2443234776905,25.664852810081307],[-100.24359091549951,25.664805646520875],[-100.243590337191264,25.664811829024647],[-100.243578503463766,25.664961156423225],[-100.243754506093893,25.664972487749463],[-100.243752138110693,25.665002368822055],[-100.243576135480595,25.664991037498652],[-100.243530293714471,25.664988086134205],[-100.243544537355248,25.664808348543165],[-100.243309516236948,25.664982800504102],[-100.243299132075364,25.664971435178821],[-100.243528325453809,25.664801309028441],[-100.243524714222374,25.6648010499358],[-100.243525670078228,25.664790226301665],[-100.243409245567818,25.664781873267984],[-100.243404184865341,25.664839178127032],[-100.24340238545318,25.664859553762213],[-100.243377945273409,25.664857800269594],[-100.243347288241736,25.664855600740793],[-100.243311316902364,25.664853019929556],[-100.243302122031011,25.664957137996826],[-100.243301487245247,25.664964325986034],[-100.243283621898527,25.664963044214524],[-100.243284254979983,25.664955875523841],[-100.243293451555644,25.664851738156781],[-100.243099880965104,25.664837850180387],[-100.243090506957998,25.664943996702807],[-100.243070162741404,25.664942537081444],[-100.243079536748482,25.664836390557831],[-100.243036003723788,25.664833267223766],[-100.24303691802757,25.664822914107077],[-100.24303783233141,25.664812560989493],[-100.243081365356474,25.664815684324125],[-100.243086396866133,25.664758710048947],[-100.242856357619146,25.664742205567681],[-100.242857866378515,25.664725121121478],[-100.243087905623241,25.664741625602773],[-100.243122444763728,25.664350520844],[-100.243132881067993,25.66435126901801],[-100.24314278898035,25.664351980472606],[-100.243126237458924,25.664539243908948],[-100.243352230130697,25.66455545808979],[-100.243376396076215,25.664281814161303],[-100.243377201741126,25.664272691174268],[-100.243378379354255,25.664259356412639],[-100.243378379354283,25.664259356412643],[-100.243378379354283,25.664259356412639],[-100.243396312428501,25.664260643050937],[-100.243396312428501,25.664260643050941],[-100.243571329564688,25.664273199946383],[-100.243571329564688,25.664273199946386],[-100.243618508530048,25.663738965378453]],[[-100.244350837953277,25.664854571579731],[-100.244350837950208,25.664854571579532],[-100.244350837950208,25.664854571579536],[-100.244350837953263,25.664854571579731],[-100.244332789733875,25.665082318212839],[-100.244602563807149,25.665099686673948],[-100.244601777817991,25.665109604892596],[-100.244637027193818,25.665110969321645],[-100.244672276569702,25.665112333750688],[-100.244670457298525,25.665150517267193],[-100.244918773595757,25.665169426791717],[-100.244944740201362,25.664892402399758],[-100.244915071744671,25.664890897867298],[-100.24489282750001,25.664889465746924],[-100.244350837953277,25.664854571579731]],[[-100.245443913700598,25.66492494556099],[-100.245298088220579,25.664915552074977],[-100.245298088220451,25.664915552074969],[-100.245298088220565,25.664915552074977],[-100.2452957658559,25.664944841885983],[-100.245244060847057,25.664941511259656],[-100.2452451931767,25.664927230246061],[-100.245246383211636,25.664912221447818],[-100.245184149242519,25.664908212587584],[-100.245182865560537,25.664924402468298],[-100.245182008681056,25.664935209486757],[-100.245136134205254,25.664932254439407],[-100.245136134205254,25.664932254439403],[-100.245138274766617,25.664905257539562],[-100.244977839491455,25.664894922948044],[-100.244949040717543,25.665202162308717],[-100.245115851779047,25.665214865124501],[-100.245122643608028,25.665142406670334],[-100.245227525952004,25.665150393562229],[-100.245220734123023,25.665222852011478],[-100.245414605886509,25.66523761552461],[-100.245443913700598,25.66492494556099]],[[-100.243379773881017,25.664837094039576],[-100.243384805388061,25.664780119774218],[-100.243318177020157,25.664775339431671],[-100.243313145510399,25.664832313698739],[-100.243349087653897,25.664835225104941],[-100.243379773881017,25.664837094039576]],[[-100.244609020148587,25.664261971675089],[-100.244621960365663,25.664071479368594],[-100.244621865889229,25.66407147389895],[-100.244621865889229,25.664071473898954],[-100.244124877923184,25.664042701145295],[-100.24411163663612,25.664228515319902],[-100.244609020148587,25.664261971675089]],[[-100.243962286978004,25.663779107607077],[-100.24395148501857,25.664003043584547],[-100.244086094392628,25.664011857517263],[-100.244095463420976,25.66388038197185],[-100.244085755191165,25.663879924698612],[-100.244089986450945,25.663806941779782],[-100.244004893216015,25.663802933749018],[-100.244006174845481,25.663780827536296],[-100.243962286978004,25.663779107607077]],[[-100.243368227124805,25.664578667997269],[-100.243368138581531,25.664579670620167],[-100.243350205507255,25.664578383985305],[-100.243350294050529,25.664577381362381],[-100.243124301376469,25.66456116718436],[-100.243108248648781,25.664743085141055],[-100.243527178837596,25.664773141862344],[-100.243543244261147,25.664591224860086],[-100.243368227124805,25.664578667997269]],[[-100.243394329150433,25.664283100799356],[-100.243370163204972,25.664556744724912],[-100.243545180343588,25.664569301590202],[-100.243569796305138,25.664290561885871],[-100.243394779168966,25.664278004992255],[-100.243394329150433,25.664283100799356]],[[-100.243570386188011,25.664283882318756],[-100.243570386187969,25.664283882318752],[-100.243569796305138,25.664290561885871],[-100.243570386188011,25.664283882318756]],[[-100.243101709573097,25.664817143946934],[-100.243295280163679,25.66483103192574],[-100.243300311673437,25.664774057658128],[-100.243106741082755,25.664760169672558],[-100.243101709573097,25.664817143946934]],[[-100.244068472376057,25.664259146819493],[-100.244081320266801,25.664078852789309],[-100.244081643620092,25.664074315178151],[-100.244049351279259,25.664072198329613],[-100.243636728625404,25.66404514981771],[-100.243619932870047,25.664232031839646],[-100.243742088933175,25.66423941638309],[-100.243747844983417,25.664162059202376],[-100.243952932202347,25.664174457083377],[-100.243947176152133,25.664251814256044],[-100.244068472376057,25.664259146819493]],[[-100.244052120067039,25.664491771738],[-100.24406648495922,25.664287036174933],[-100.244066806202554,25.664282528177839],[-100.243618193421241,25.664255408773741],[-100.243600309590192,25.66445962737744],[-100.243724151339961,25.664468438182972],[-100.243914195672758,25.664481959015045],[-100.244052120067039,25.664491771738]],[[-100.243597735719305,25.664489018831521],[-100.2435735658417,25.664765018234345],[-100.244030338315454,25.664794425999702],[-100.244032565996079,25.664763484769598],[-100.244040362056765,25.664655201811314],[-100.244050010065465,25.664521196186392],[-100.243597735719305,25.664489018831521]],[[-100.243930843881714,25.664043753309798],[-100.243932117629839,25.664023473782915],[-100.243916345459851,25.664022855685875],[-100.243916409440615,25.66402152929626],[-100.243640298955214,25.6640034501755],[-100.243638388179349,25.664024582057877],[-100.243930843881714,25.664043753309798]],[[-100.243932478692315,25.664023492207349],[-100.243932479036133,25.6640234879461],[-100.243932117629839,25.664023473782915],[-100.243932478692315,25.664023492207349]],[[-100.243994176034178,25.664047904901437],[-100.2440831101936,25.664053734772974],[-100.24408462030523,25.664032543381136],[-100.243995884323255,25.664026733140645],[-100.243994176034178,25.664047904901437]],[[-100.244723792811541,25.664649115081044],[-100.244723792811541,25.664649115081041],[-100.244750151720339,25.66431649621477],[-100.244108442181286,25.664273342934155],[-100.244071122235951,25.664797051735782],[-100.244890777023869,25.664849822471076],[-100.244895942746481,25.664850155048793],[-100.244910919787316,25.664661162641508],[-100.244752838058048,25.664650985064657],[-100.244723792811541,25.664649115081044]],[[-100.244779190406291,25.664318448990116],[-100.244779190408821,25.664318448990279],[-100.244779190406291,25.664318448990109],[-100.244779190406291,25.664318448990116]],[[-100.244772528221219,25.664402518063643],[-100.244793745738107,25.664403765302545],[-100.244998595319871,25.664415807067559],[-100.245002850207825,25.664416057184535],[-100.245008794829687,25.664333898671543],[-100.244779190408821,25.664318448990279],[-100.244772528221219,25.664402518063643]],[[-100.245022681126486,25.664650142272645],[-100.245045424300585,25.664651606517836],[-100.245043988089336,25.664669729809699],[-100.245041851628955,25.664696689414523],[-100.245030520300674,25.664695959884128],[-100.245019108454855,25.664695225169883],[-100.24502124491508,25.664668265564675],[-100.244933164031934,25.664662594764575],[-100.244918186991129,25.664851587169846],[-100.244918977665762,25.664851638074779],[-100.245447595036026,25.664885671325301],[-100.245496241026942,25.664366692778902],[-100.245271760024508,25.664351593141141],[-100.245144134763677,25.664424362377307],[-100.245169117952614,25.66442583097518],[-100.245167929425406,25.664442257181094],[-100.245031542236973,25.664434239873625],[-100.245016771606615,25.664433371605195],[-100.245001661681073,25.664432483391824],[-100.244792557210886,25.664420191511503],[-100.244771227024984,25.6644189376497],[-100.244754274267407,25.664632861769746],[-100.244912355998565,25.664643039348341],[-100.245022681126486,25.664650142272645]],[[-100.245038657087164,25.664335908050798],[-100.245032730763725,25.664417813666574],[-100.24503507496685,25.664417951466913],[-100.245114421128633,25.664422615707522],[-100.245242442803232,25.664349620436422],[-100.245038657087164,25.664335908050798]]]}}
]
}
