{
"type": "FeatureCollection",
"name": "limites",
"crs": { "type": "name", "properties": { "name": "urn:ogc:def:crs:OGC:1.3:CRS84" } },
"features": [
{"type":"Feature","properties":{"fid":1},"geometry":{"type":"MultiPolygon","coordinates":[[[[-100.242095784605524,25.667611213833496],[-100.242594253531777,25.665172491516344],[-100.242688112538374,25.664713287695083],[-100.242995312604094,25.663210303486686],[-100.246821904709975,25.664209197903652],[-100.24682696951308,25.664211392319913],[-100.246831991311552,25.664213665614856],[-100.246836968593442,25.664216017104053],[-100.246841899860229,25.664218446079524],[-100.246846783627248,25.664220951809963],[-100.246851618424088,25.664223533540966],[-100.24685640279516,25.664226190495224],[-100.246861135299994,25.664228921872805],[-100.246865814513768,25.664231726851348],[-100.246870439027703,25.664234604586348],[-100.246875007449461,25.664237554211397],[-100.246879518403617,25.66424057483842],[-100.246883970532053,25.664243665557994],[-100.246888362494332,25.664246825439573],[-100.246892692968174,25.664250053531788],[-100.24689696064975,25.664253348862758],[-100.246901164254211,25.664256710440327],[-100.246905302515955,25.664260137252413],[-100.246909374189045,25.664263628267282],[-100.246913378047623,25.664267182433885],[-100.246917312886225,25.664270798682146],[-100.246921177520179,25.6642744759233],[-100.24692497078594,25.664278213050228],[-100.246928691541484,25.664282008937764],[-100.246932338666539,25.664285862443066],[-100.24693591106309,25.664289772405947],[-100.246939407655589,25.664293737649206],[-100.246942827391265,25.664297756979014],[-100.246946169240559,25.664301829185248],[-100.24694943219734,25.664305953041865],[-100.246952615279156,25.664310127307285],[-100.24695571752774,25.664314350724737],[-100.246958738009027,25.664318622022648],[-100.246961675813665,25.664322939915056],[-100.246964530057156,25.664327303101935],[-100.246967299880154,25.66433171026965],[-100.246969984448725,25.664336160091313],[-100.246972582954669,25.664340651227199],[-100.246975094615578,25.664345182325135],[-100.246977518675294,25.664349752020922],[-100.246979854403989,25.664354358938748],[-100.246982101098439,25.664359001691583],[-100.246984258082222,25.664363678881607],[-100.246986324705929,25.664368389100648],[-100.246988300347354,25.664373130930574],[-100.246990184411672,25.664377902943745],[-100.246991976331671,25.664382703703428],[-100.246993675567808,25.664387531764241],[-100.24699528160852,25.664392385672578],[-100.246996793970268,25.664397263967043],[-100.24699821219771,25.664402165178924],[-100.246999966827701,25.664407117900971],[-100.247001626295557,25.664412097198571],[-100.247003190106298,25.664417101586373],[-100.247004657793369,25.664422129571516],[-100.247006028918975,25.664427179654123],[-100.247007303074113,25.6644322503277],[-100.247008479878659,25.66443734007964],[-100.247009558981603,25.664442447391622],[-100.247010540061027,25.664447570740101],[-100.247011422824244,25.664452708596734],[-100.247012207007941,25.664457859428868],[-100.247012892378208,25.664463021699969],[-100.247013478730537,25.664468193870082],[-100.247013965890062,25.664473374396323],[-100.24701435371145,25.664478561733297],[-100.247014642079023,25.664483754333581],[-100.247014830906721,25.664488950648177],[-100.247014920138255,25.664494149127002],[-100.247014909746994,25.664499348219298],[-100.247014799736036,25.66450454637414],[-100.247014590138178,25.664509742040885],[-100.247014281015964,25.664514933669626],[-100.247013872461608,25.664520119711661],[-100.247013364597009,25.664525298619957],[-100.247012757573629,25.664530468849609],[-100.247012051572554,25.6645356288583],[-100.247011246804391,25.664540777106765],[-100.247010343509217,25.664545912059246],[-100.247009341956485,25.664551032183944],[-100.247008242444963,25.6645561359535],[-100.247007045302652,25.664561221845421],[-100.247005750886672,25.664566288342542],[-100.247004359583144,25.664571333933498],[-100.247002871807098,25.664576357113162],[-100.247001288002366,25.664581356383074],[-100.246999608641417,25.664586330251925],[-100.246997834225169,25.664591277235981],[-100.246995965283006,25.664596195859513],[-100.246994002372404,25.664601084655271],[-100.246991946078936,25.66460594216489],[-100.246989797015999,25.66461076693934],[-100.246987555824674,25.664615557539378],[-100.24698522317351,25.664620312535913],[-100.246982799758385,25.664625030510514],[-100.246980286302218,25.66462971005577],[-100.246977683554761,25.664634349775749],[-100.246974992292465,25.664638948286399],[-100.246972213318131,25.664643504215938],[-100.246969347460762,25.664648016205316],[-100.246966395575257,25.664652482908579],[-100.246963358542189,25.664656902993283],[-100.24696023726753,25.66466127514088],[-100.24695703268236,25.664665598047137],[-100.246953745742672,25.664669870422507],[-100.246950377428931,25.664674090992509],[-100.246946928745956,25.664678258498132],[-100.246943400722515,25.66468237169617],[-100.246939794411063,25.664686429359641],[-100.246936110887347,25.664690430278121],[-100.246932351250237,25.664694373258104],[-100.24692851662121,25.664698257123383],[-100.246924608144212,25.664702080715376],[-100.24692062698513,25.664705842893486],[-100.246916574331578,25.664709542535427],[-100.246912451392532,25.664713178537582],[-100.246908259397841,25.664716749815305],[-100.246871160020135,25.664747961703757],[-100.24683347852357,25.664778601803636],[-100.246795225753715,25.664808661296465],[-100.246756412720629,25.664838131530868],[-100.246717050595578,25.664867004025062],[-100.246677150707882,25.664895270469323],[-100.246636724541688,25.664922922728351],[-100.246595783732559,25.664949952843617],[-100.246554340064193,25.664976353035652],[-100.246554340064193,25.664976353035655],[-100.242095784605524,25.667611213833496]]]]}}
]
}
