{
"type": "FeatureCollection",
"name": "edificios",
"crs": { "type": "name", "properties": { "name": "urn:ogc:def:crs:OGC:1.3:CRS84" } },
"features": [
{"type":"Feature","properties":{"nombre_zona":"Campo de baseball","tipo_edificio":"deportes"},"geometry":{"type":"MultiPolygon","coordinates":[[[[-100.244215281372036,25.66522288905799],[-100.244214723652604,25.665224040040432],[-100.244213957813812,25.665225853034855],[-100.244212988699829,25.665228312789754],[-100.244211821154849,25.665231404053628],[-100.244210460022899,25.665235111574958],[-100.244208910148203,25.66523942010225],[-100.2442071763749,25.66524431438399],[-100.244205263547045,25.665249779168658],[-100.24420317650889,25.665255799204765],[-100.244200920104447,25.665262359240781],[-100.244198499177955,25.665269444025224],[-100.244195918573539,25.665277038306577],[-100.244193183135295,25.665285126833325],[-100.244190297707334,25.665293694353956],[-100.244187267133881,25.665302725616975],[-100.244184096259005,25.665312205370864],[-100.244180789926872,25.665322118364131],[-100.244177352981637,25.665332449345257],[-100.244173790267382,25.665343183062717],[-100.244170106628303,25.665354304265037],[-100.244166306908483,25.665365797700684],[-100.244162395952117,25.665377648118167],[-100.244158378603316,25.665389840265963],[-100.244154259706221,25.665402358892575],[-100.244150044104927,25.665415188746486],[-100.244145736643631,25.665428314576197],[-100.244141342166415,25.665441721130186],[-100.244136865517504,25.665455393156968],[-100.244132311540994,25.665469315405019],[-100.244127685080969,25.665483472622839],[-100.24412299098158,25.665497849558903],[-100.244118234087011,25.665512430961716],[-100.244113419241387,25.665527201579774],[-100.244108551288832,25.66554214616157],[-100.244103635073515,25.665557249455588],[-100.244098675439517,25.66557249621032],[-100.244093677231021,25.66558787117426],[-100.244088645292123,25.665603359095901],[-100.244083584467006,25.66561894472374],[-100.244078499599794,25.665634612806258],[-100.244073395534642,25.665650348091965],[-100.244068277115602,25.665666135329328],[-100.2440631491869,25.665681959266848],[-100.244058016592646,25.665697804653036],[-100.244052884176995,25.665713656236363],[-100.244047756784056,25.66572949876533],[-100.24404263925797,25.665745316988428],[-100.244037536442875,25.665761095654148],[-100.244032453182939,25.665776819510974],[-100.244027394322273,25.665792473307413],[-100.244022364705003,25.665808041791948],[-100.244017369175282,25.665823509713071],[-100.244012412577248,25.665838861819278],[-100.244007499755043,25.665854082859063],[-100.244002635552789,25.665869157580914],[-100.243997824814628,25.66588407073332],[-100.243993072384711,25.665898807064774],[-100.24398838310718,25.665913351323773],[-100.243983761826144,25.665927688258815],[-100.243979213385757,25.66594180261837],[-100.243974742630158,25.665955679150954],[-100.243970354403459,25.665969302605049],[-100.243966053549812,25.665982657729145],[-100.2439618449134,25.665995729271735],[-100.243957733338306,25.66600850198131],[-100.243953723668696,25.666020960606371],[-100.243949820748668,25.666033089895397],[-100.243946029422403,25.666044874596889],[-100.243942354533999,25.666056299459342],[-100.243938800927637,25.666067349231241],[-100.243935373447428,25.666078008661074],[-100.243932076937526,25.666088262497343],[-100.243928916242027,25.666098095488529],[-100.243925896205127,25.666107492383144],[-100.243923021670952,25.666116437929659],[-100.243920297483569,25.66612491687658],[-100.243917728487204,25.666132913972387],[-100.243915319525939,25.666140413965579],[-100.243913075443956,25.666147401604654],[-100.243911001085365,25.66615386163809],[-100.243909101294278,25.666159778814386],[-100.243907380914891,25.666165137882043],[-100.243905844791286,25.666169923589543],[-100.243904497767645,25.666174120685376],[-100.243903344688079,25.666177713918039],[-100.243902390396727,25.666180688036025],[-100.243901639737743,25.666183027787827],[-100.243901097555252,25.666184717921926],[-100.243900768693365,25.66618574318683],[-100.243900657996278,25.66618608833102],[-100.243900686209116,25.66618612951461],[-100.243900771189843,25.666186251200855],[-100.243900913451981,25.666186450592999],[-100.243901113508883,25.666186724894263],[-100.24390137187406,25.666187071307885],[-100.243901689060877,25.666187487037103],[-100.243902065582802,25.666187969285129],[-100.243902501953258,25.666188515255214],[-100.243902998685698,25.66618912215058],[-100.243903556293532,25.666189787174456],[-100.243904175290211,25.666190507530089],[-100.243904856189175,25.666191280420691],[-100.243905599503819,25.666192103049511],[-100.243906405747609,25.666192972619768],[-100.243907275433983,25.6661938863347],[-100.243908209076366,25.666194841397537],[-100.243909207188153,25.666195835011511],[-100.243910270282868,25.666196864379852],[-100.243911398873863,25.666197926705795],[-100.243912593474604,25.666199019192568],[-100.243913854598532,25.666200139043411],[-100.243915182759068,25.666201283461543],[-100.243916578469637,25.666202449650203],[-100.243918042243692,25.666203634812629],[-100.243919574594685,25.666204836152033],[-100.243921176035983,25.666206050871665],[-100.243922847081066,25.666207276174756],[-100.243924588243402,25.666208509264528],[-100.243926400036372,25.666209747344215],[-100.2439282829734,25.666210987617056],[-100.243930237567952,25.666212227286273],[-100.243932264333466,25.666213463555106],[-100.243934363783353,25.666214693626781],[-100.243936536431079,25.66621591470453],[-100.243938782790053,25.666217123991593],[-100.2439411033737,25.666218318691186],[-100.243943498695472,25.666219496006555],[-100.243945969268779,25.666220653140925],[-100.243948515607087,25.66622178729753],[-100.243951138223821,25.666222895679603],[-100.243953837632418,25.666223975490375],[-100.243956614346303,25.666225023933066],[-100.243959468878899,25.66622603821093],[-100.243962401743659,25.666227015527181],[-100.243965413454021,25.666227953085055],[-100.243968504523394,25.666228848087787],[-100.243971675465218,25.666229697738608],[-100.24397492679293,25.666230499240747],[-100.243978259019997,25.666231249797434],[-100.243981672659828,25.666231946611909],[-100.243985168225834,25.666232586887396],[-100.243988746231466,25.66623316782713],[-100.243992407190177,25.666233686634342],[-100.243996151615363,25.666234140512266],[-100.243999980020504,25.666234526664127],[-100.244003892918983,25.666234842293164],[-100.244007890824292,25.666235084602611],[-100.244011974249787,25.666235250795687],[-100.244016143709004,25.66623533807563],[-100.244020399715282,25.666235343645681],[-100.244024742782102,25.666235264709051],[-100.244029173422902,25.666235098468995],[-100.244033692151092,25.666234842128731],[-100.244038299480124,25.666234492891494],[-100.244042995923422,25.666234047960511],[-100.244047781994425,25.666233504539019],[-100.244052658206556,25.666232859830252],[-100.244057625073268,25.666232111037441],[-100.24406268310797,25.666231255363812],[-100.244067832824143,25.666230290012599],[-100.244073074735169,25.66622921218703],[-100.244078409354515,25.666228019090344],[-100.244083837195575,25.666226707925773],[-100.244089358771816,25.666225275896544],[-100.244094974596678,25.666223720205888],[-100.244100685183597,25.666222038057036],[-100.244106491045983,25.666220226653238],[-100.244112392697261,25.666218283197697],[-100.244118390650897,25.666216204893662],[-100.244124485420315,25.66621398894436],[-100.24413067751891,25.666211632553022],[-100.244136967460207,25.666209132922884],[-100.244143355757544,25.66620648725717],[-100.244149842924415,25.666203692759122],[-100.244156429474231,25.666200746631965],[-100.244163115920429,25.666197646078928],[-100.244169902776449,25.666194388303254],[-100.244176790555699,25.666190970508165],[-100.244183779771632,25.666187389896887],[-100.2441908709377,25.666183643672667],[-100.244198176481021,25.666179692535707],[-100.244205802429448,25.666175503310271],[-100.2442137396974,25.66617108237465],[-100.244221979199338,25.666166436107083],[-100.244230511849722,25.666161570885851],[-100.244239328563012,25.666156493089208],[-100.244248420253655,25.666151209095421],[-100.244257777836069,25.666145725282767],[-100.244267392224756,25.666140048029497],[-100.24427725433415,25.666134183713879],[-100.244287355078697,25.666128138714186],[-100.244297685372842,25.666121919408667],[-100.244308236131062,25.666115532175599],[-100.244318998267801,25.666108983393244],[-100.244329962697464,25.666102279439862],[-100.244341120334596,25.66609542669373],[-100.244352462093545,25.666088431533097],[-100.244363978888856,25.666081300336241],[-100.244375661634905,25.666074039481423],[-100.24438750124618,25.666066655346903],[-100.244399488637143,25.666059154310943],[-100.244411614722239,25.66605154275182],[-100.244423870415929,25.666043827047787],[-100.244436246632617,25.66603601357712],[-100.244448734286806,25.666028108718073],[-100.244461324292914,25.66602011884892],[-100.244474007565415,25.666012050347916],[-100.244486775018771,25.666003909593336],[-100.244499617567413,25.665995702963436],[-100.244512526125803,25.665987436836488],[-100.244525491608357,25.665979117590751],[-100.244538504929608,25.66597075160449],[-100.244551557003916,25.665962345255977],[-100.244564638745771,25.66595390492347],[-100.244577741069676,25.665945436985233],[-100.244590854889992,25.665936947819539],[-100.244603971121222,25.665928443804642],[-100.244617080677827,25.665919931318815],[-100.244630174474253,25.665911416740315],[-100.244643243424918,25.665902906447414],[-100.24465627844431,25.665894406818374],[-100.244669270446849,25.665885924231457],[-100.244682210347037,25.665877465064938],[-100.244695089059277,25.665869035697067],[-100.244707897498046,25.665860642506118],[-100.244720626577788,25.665852291870358],[-100.244733267212951,25.665843990168042],[-100.244745810318022,25.665835743777443],[-100.244758246807379,25.665827559076824],[-100.244770567595538,25.665819442444452],[-100.24478276359693,25.665811400258583],[-100.244794825726018,25.665803438897491],[-100.244806744897232,25.665795564739433],[-100.244818512025034,25.665787784162681],[-100.244830118023899,25.665780103545501],[-100.244841553808243,25.66577252926615],[-100.244852810292556,25.665765067702889],[-100.244863878391243,25.665757725234005],[-100.244874749018777,25.665750508237736],[-100.244885413089634,25.665743423092366],[-100.244895861518216,25.665736476176146],[-100.244906085219057,25.66572967386735],[-100.244916075106502,25.665723022544242],[-100.244925822095084,25.665716528585083],[-100.24493531709922,25.665710198368139],[-100.244944551033385,25.66570403827167],[-100.244953514811996,25.665698054673957],[-100.24496219934953,25.665692253953249],[-100.244970595560417,25.66568664248782],[-100.244978694359162,25.66568122665592],[-100.244986486660167,25.665676012835828],[-100.244993963377908,25.665671007405809],[-100.245001115426803,25.665666216744121],[-100.24500793372134,25.665661647229033],[-100.245014409175951,25.665657305238803],[-100.245020532705112,25.665653197151709],[-100.245026295223269,25.665649329346003],[-100.245031687644826,25.665645708199953],[-100.245036700884285,25.665642340091829],[-100.245041325856107,25.665639231399894],[-100.245045553474711,25.665636388502399],[-100.245049374654556,25.665633817777632],[-100.245052780310104,25.665631525603846],[-100.245055761355786,25.665629518359303],[-100.245058308706106,25.665627802422271],[-100.245060413275453,25.665626384171013],[-100.245062065978303,25.665625269983799],[-100.2450632577291,25.665624466238889],[-100.245063979442335,25.665623979314553],[-100.245064222032426,25.665623815589043],[-100.245064287074925,25.665623764842515],[-100.24506447983093,25.665623613633485],[-100.245064796743421,25.665623363507791],[-100.245065234255208,25.665623016011264],[-100.245065788809214,25.665622572689749],[-100.245066456848292,25.665622035089079],[-100.24506723481538,25.665621404755086],[-100.245068119153331,25.665620683233609],[-100.24506910630501,25.665619872070486],[-100.245070192713342,25.665618972811554],[-100.24507137482118,25.665617987002641],[-100.245072649071446,25.665616916189588],[-100.245074011906993,25.665615761918236],[-100.245075459770703,25.665614525734416],[-100.245076989105499,25.665613209183959],[-100.245078596354233,25.665611813812717],[-100.245080277959801,25.665610341166516],[-100.245082030365097,25.665608792791186],[-100.245083850013003,25.665607170232573],[-100.245085733346386,25.665605475036511],[-100.245087676808126,25.66560370874884],[-100.245089676841161,25.665601872915378],[-100.24509172988833,25.665599969081985],[-100.245093832392541,25.665597998794478],[-100.245095980796634,25.665595963598712],[-100.24509817154356,25.66559386504051],[-100.245100401076172,25.665591704665704],[-100.245102665837365,25.665589484020149],[-100.245104962269991,25.665587204649658],[-100.245107286816989,25.665584868100087],[-100.245109635921196,25.665582475917255],[-100.245112006025522,25.665580029647014],[-100.245114393572862,25.665577530835193],[-100.245116795006084,25.665574981027628],[-100.245119206768067,25.665572381770154],[-100.245121625301735,25.66556973460861],[-100.245124047049927,25.665567041088824],[-100.245126468455538,25.66556430275665],[-100.245128885961464,25.665561521157905],[-100.245131296010612,25.665558697838435],[-100.245133695045809,25.665555834344072],[-100.245136079510019,25.665552932220656],[-100.245138445846067,25.665549993014025],[-100.245140790496833,25.665547018270011],[-100.245143109905243,25.665544009534447],[-100.245145400514161,25.665540968353177],[-100.245147658766484,25.665537896272031],[-100.245149881105078,25.665534794836852],[-100.245152063972853,25.66553166559347],[-100.245154203812689,25.665528510087718],[-100.245156297067467,25.665525329865439],[-100.245158340180041,25.665522126472467],[-100.245160329593318,25.665518901454639],[-100.245162261750224,25.66551565635779],[-100.245164133093596,25.665512392727756],[-100.245165940066329,25.665509112110378],[-100.245167679111319,25.665505816051478],[-100.245169346671446,25.665502506096914],[-100.24517093918962,25.665499183792505],[-100.245172453108651,25.665495850684092],[-100.245173884871505,25.665492508317509],[-100.245175230921035,25.665489158238596],[-100.245176487700149,25.665485801993192],[-100.245177651651673,25.665482441127129],[-100.245178719218558,25.665479077186241],[-100.245179686843656,25.665475711716368],[-100.245180550969877,25.665472346263336],[-100.24518130804006,25.665468982373],[-100.245181954497141,25.665465621591181],[-100.245182486784003,25.66546226546372],[-100.245182901343469,25.665458915536458],[-100.245183194618505,25.665455573355221],[-100.245183363051922,25.66545224046585],[-100.245183403086656,25.665448918414182],[-100.245183311165619,25.665445608746055],[-100.245183083731604,25.665442313007301],[-100.245182717227593,25.665439032743762],[-100.245182208096367,25.665435769501268],[-100.24518155278092,25.665432524825654],[-100.245180747724078,25.665429300262765],[-100.245179789368748,25.665426097358427],[-100.245178674157813,25.665422917658486],[-100.245177398534125,25.665419762708769],[-100.245175958940621,25.66541663405512],[-100.24517435182014,25.665413533243367],[-100.245172573615605,25.665410461819352],[-100.245170620769869,25.665407421328908],[-100.245168489725856,25.665404413317876],[-100.245166176926418,25.66540143933209],[-100.245163678814436,25.66539850091738],[-100.244215281372036,25.66522288905799]]]]}},
{"type":"Feature","properties":{"nombre_zona":"Nodo","tipo_edificio":"Edificio"},"geometry":{"type":"MultiPolygon","coordinates":[[[[-100.246263045584669,25.664710116728166],[-100.246292880559949,25.664333634090504],[-100.246783093596576,25.664365194939954],[-100.246753258621283,25.664741677477966],[-100.246263045584669,25.664710116728166]]]]}},
{"type":"Feature","properties":{"nombre_zona":"entrada norte","tipo_edificio":"Entrada "},"geometry":{"type":"MultiPolygon","coordinates":[[[[-100.245765343951547,25.665477746475457],[-100.245679907431409,25.66535551277007],[-100.245396458883192,25.665516467110034],[-100.24548189540333,25.665638700650415],[-100.245765343951547,25.665477746475457]]]]}},
{"type":"Feature","properties":{"nombre_zona":"Gimnasio","tipo_edificio":"deportes"},"geometry":{"type":"MultiPolygon","coordinates":[[[[-100.243032021590153,25.664664660790926],[-100.243038802266355,25.664554038538608],[-100.242883845508203,25.664546321990322],[-100.242877064831987,25.664656944249796],[-100.243032021590153,25.664664660790926]]]]}},
{"type":"Feature","properties":{"fid":2,"nombre_zona":"Edificio 15","tipo_edificio":"Edificio"},"geometry":{"type":"MultiPolygon","coordinates":[[[[-100.245159882798347,25.664553466651203],[-100.245167929425406,25.664442257181094],[-100.245031542236973,25.664434239873625],[-100.245016771606615,25.664433371605195],[-100.245001661681073,25.664432483391824],[-100.244792557210886,25.664420191511503],[-100.244784510583841,25.664531401002186],[-100.245159882798347,25.664553466651203]]]]}},
{"type":"Feature","properties":{"fid":3,"nombre_zona":"Biblioteca","tipo_edificio":"Edificio"},"geometry":{"type":"MultiPolygon","coordinates":[[[[-100.244694519534264,25.664601818562378],[-100.244392771020074,25.664582477800259],[-100.244414276714849,25.664309889304469],[-100.244716025229025,25.664329230110802],[-100.244694519534264,25.664601818562378]]]]}},
{"type":"Feature","properties":{"fid":4,"nombre_zona":"Edificio 20","tipo_edificio":"Edificio"},"geometry":{"type":"MultiPolygon","coordinates":[[[[-100.245244942785334,25.664306763603207],[-100.245264701746294,25.664042433986268],[-100.245546499263924,25.664060813512108],[-100.245526740303589,25.664325143103262],[-100.245419835330665,25.664318170508633],[-100.245392434084792,25.664316383334643],[-100.245244942785334,25.664306763603207]]]]}},
{"type":"Feature","properties":{"fid":5,"nombre_zona":"Edificio 1","tipo_edificio":"Edificio"},"geometry":{"type":"MultiPolygon","coordinates":[[[[-100.242943037047525,25.664065111249293],[-100.242952424779091,25.663881373055524],[-100.243266051216864,25.663894391546943],[-100.243256663485312,25.664078129720654],[-100.242943037047525,25.664065111249293]]]]}},
{"type":"Feature","properties":{"fid":6,"nombre_zona":"Edificio 3","tipo_edificio":"Edificio"},"geometry":{"type":"MultiPolygon","coordinates":[[[[-100.243508983149681,25.664708192697933],[-100.243518370881233,25.664587312991074],[-100.24313972694047,25.664563422774293],[-100.243130339208918,25.664684302505371],[-100.243508983149681,25.664708192697933]]]]}},
{"type":"Feature","properties":{"fid":7,"nombre_zona":"Edificio 9","tipo_edificio":"Edificio"},"geometry":{"type":"MultiPolygon","coordinates":[[[[-100.24364701535653,25.664169540201875],[-100.243656666086565,25.664046153263243],[-100.24404892585855,25.664070439969326],[-100.244039275128259,25.664193826879306],[-100.24364701535653,25.664169540201875]]]]}},
{"type":"Feature","properties":{"fid":8,"nombre_zona":"Edificio 8","tipo_edificio":"Edificio"},"geometry":{"type":"MultiPolygon","coordinates":[[[[-100.243635046973381,25.664378190808829],[-100.243645775809441,25.664253684364294],[-100.244030856460924,25.664280642920065],[-100.244020127624864,25.664405149336453],[-100.243635046973381,25.664378190808829]]]]}},
{"type":"Feature","properties":{"fid":9,"nombre_zona":"Edificio 14","tipo_edificio":"Edificio"},"geometry":{"type":"MultiPolygon","coordinates":[[[[-100.245051753457631,25.664288849803071],[-100.245059854735374,25.664178337949529],[-100.244652135111636,25.664153092939568],[-100.244644033833623,25.664263604811755],[-100.244690780745515,25.664266499265256],[-100.245051753457631,25.664288849803071]]]]}},
{"type":"Feature","properties":{"fid":10,"nombre_zona":"Edificio 12","tipo_edificio":"Edificio"},"geometry":{"type":"MultiPolygon","coordinates":[[[[-100.244577172889791,25.663944835292586],[-100.244585890069089,25.663765932137622],[-100.244818394912841,25.663775136158968],[-100.244809677733542,25.663954039300126],[-100.244732999139828,25.663951003878044],[-100.244709082015788,25.663950057087494],[-100.244630143608305,25.66394693220764],[-100.244577172889791,25.663944835292586]]]]}},
{"type":"Feature","properties":{"fid":12,"nombre_zona":"Edificio 24","tipo_edificio":"Edificio"},"geometry":{"type":"MultiPolygon","coordinates":[[[[-100.245476383461977,25.665112534426839],[-100.245492476716066,25.664920336287199],[-100.245987910299434,25.664954038567483],[-100.24597181704533,25.665146236652799],[-100.245542666003701,25.665117043344974],[-100.245476383461977,25.665112534426839]]]]}},
{"type":"Feature","properties":{"fid":13,"nombre_zona":"Edificio 19","tipo_edificio":"Edificio"},"geometry":{"type":"MultiPolygon","coordinates":[[[[-100.245403963818575,25.665168138862288],[-100.245178094650669,25.665157891293401],[-100.24500431467537,25.66515000698401],[-100.245017333003304,25.66491689232539],[-100.245160449455668,25.664923385459019],[-100.245182865560537,25.664924402468298],[-100.2452451931767,25.664927230246061],[-100.245271469910918,25.66492842450754],[-100.245271252570475,25.664928410507354],[-100.2452713598054,25.664928417414991],[-100.245416982146509,25.664935024239117],[-100.245403963818575,25.665168138862288]]]]}},
{"type":"Feature","properties":{"fid":14,"nombre_zona":"Cafeteria","tipo_edificio":"Edificio"},"geometry":{"type":"MultiPolygon","coordinates":[[[[-100.244118649601148,25.663638256251549],[-100.244235131626851,25.663644982927529],[-100.2442216457423,25.663878510327173],[-100.244105163716597,25.663871783651189],[-100.244108965016679,25.663807835701302],[-100.244112264604595,25.663752327853206],[-100.244114541850323,25.663711643573158],[-100.244118649601148,25.663638256251549]]]]}},
{"type":"Feature","properties":{"fid":15,"nombre_zona":"Edificio 16","tipo_edificio":"Edificio"},"geometry":{"type":"MultiPolygon","coordinates":[[[[-100.245153455376339,25.664849238549184],[-100.245164184212399,25.66470660064692],[-100.245050846908939,25.664699932549478],[-100.245028103734839,25.664698468304838],[-100.244926446023555,25.664692072924623],[-100.244915717187482,25.664834710844271],[-100.245153455376339,25.664849238549184]]]]}},
{"type":"Feature","properties":{"fid":16,"nombre_zona":"Edificio 18","tipo_edificio":"Edificio"},"geometry":{"type":"MultiPolygon","coordinates":[[[[-100.244571294054893,25.665097928906459],[-100.244329737987897,25.665083638115512],[-100.244343740658294,25.664891350529476],[-100.244585578628431,25.664905658021272],[-100.244586359036546,25.664895153699426],[-100.244874901024261,25.664912569446258],[-100.244859078086549,25.665125546738576],[-100.244637027193818,25.665110969321645],[-100.24459896503781,25.665109496015802],[-100.244570536098834,25.665108131022844],[-100.244571294054893,25.665097928906459]]]]}},
{"type":"Feature","properties":{"fid":17,"nombre_zona":"Edificio 5","tipo_edificio":"Edificio"},"geometry":{"type":"MultiPolygon","coordinates":[[[[-100.243996155519966,25.664517364669905],[-100.243987163942052,25.664618735815832],[-100.243620508764764,25.664591228924714],[-100.243629500342962,25.664489857760312],[-100.243996155519966,25.664517364669905]]]]}},
{"type":"Feature","properties":{"fid":27,"nombre_zona":"Edificio 5","tipo_edificio":"Edificio"},"geometry":{"type":"MultiPolygon","coordinates":[[[[-100.243879319034249,25.664927945910282],[-100.243880083431748,25.664917359945257],[-100.243616948518209,25.66490031443206],[-100.243624734438711,25.664799439978907],[-100.243890385314302,25.664816648484699],[-100.243890365153973,25.66481690968202],[-100.243955888234083,25.664820889381371],[-100.244002259717377,25.664823705863096],[-100.243994228725398,25.664934925216947],[-100.243879319034249,25.664927945910282]]]]}},
{"type":"Feature","properties":{"fid":37,"nombre_zona":"Edificio 22","tipo_edificio":"Edficio"},"geometry":{"type":"MultiPolygon","coordinates":[[[[-100.245737561778256,25.664504858210972],[-100.245724150733182,25.664704309799504],[-100.246160346760803,25.664728137837738],[-100.246173757805877,25.66452868628906],[-100.246033258958022,25.664521011259755],[-100.245737561778256,25.664504858210972]]]]}},
{"type":"Feature","properties":{"fid":38,"nombre_zona":"Edificio 6","tipo_edificio":"Edificio"},"geometry":{"type":"MultiPolygon","coordinates":[[[[-100.244040362056765,25.664655201811314],[-100.244032565996079,25.664763484769598],[-100.243919192357978,25.664756853325695],[-100.243926988418679,25.66464857036139],[-100.244040362056765,25.664655201811314]]]]}},
{"type":"Feature","properties":{"fid":39,"nombre_zona":"Centro de calidad","tipo_edificio":"Edificio"},"geometry":{"type":"MultiPolygon","coordinates":[[[[-100.243007905996052,25.664861069293462],[-100.24301780080404,25.664778369389143],[-100.242865174525036,25.66476353354857],[-100.242855279717034,25.66484623346318],[-100.243007905996052,25.664861069293462]]]]}},
{"type":"Feature","properties":{"fid":40,"nombre_zona":"Campo de futbol","tipo_edificio":"deportes"},"geometry":{"type":"MultiPolygon","coordinates":[[[[-100.243142835195883,25.666547486203971],[-100.242540151436828,25.666464787469327],[-100.242695055602795,25.66554767297615],[-100.243297739361836,25.665630372346897],[-100.243142835195883,25.666547486203971]]]]}},
{"type":"Feature","properties":{"fid":41,"nombre_zona":"cancha de futbol","tipo_edificio":"deportes"},"geometry":{"type":"MultiPolygon","coordinates":[[[[-100.243393353743485,25.665204030049207],[-100.243405947135457,25.664985119042388],[-100.243794456250711,25.665003276498293],[-100.243781862858739,25.665222187471773],[-100.243393353743485,25.665204030049207]]]]}},
{"type":"Feature","properties":{"fid":42,"nombre_zona":"padel","tipo_edificio":"deportes"},"geometry":{"type":"MultiPolygon","coordinates":[[[[-100.243693796094988,25.665769953678385],[-100.243596647071158,25.665752927361972],[-100.243557747422713,25.665933244314662],[-100.243654896446557,25.665950270605329],[-100.243693796094988,25.665769953678385]]],[[[-100.24360744140715,25.665966972305785],[-100.243517488607296,25.665958053774126],[-100.243495948002987,25.666134556281655],[-100.243585900802856,25.666143474800112],[-100.24360744140715,25.665966972305785]]],[[[-100.243547173031232,25.666168855252945],[-100.243458119759381,25.666159125962121],[-100.243434597473637,25.666334037485552],[-100.243523650745487,25.666343766762097],[-100.243547173031232,25.666168855252945]]],[[[-100.243483306543325,25.666372359403923],[-100.243387956575475,25.666358576265218],[-100.243357672636833,25.666528773906077],[-100.243453022604683,25.666542557025103],[-100.243483306543325,25.666372359403923]]]]}},
{"type":"Feature","properties":{"fid":43,"nombre_zona":"volleyball","tipo_edificio":"deportes"},"geometry":{"type":"MultiPolygon","coordinates":[[[[-100.243302122031011,25.664957137996826],[-100.243294137303209,25.6649565738017],[-100.243284254979983,25.664955875523841],[-100.243124394871899,25.664944579922942],[-100.243123747611804,25.664952021910533],[-100.24309871861098,25.665239796931104],[-100.243097777280397,25.665250620019695],[-100.243275504439495,25.665263178061348],[-100.243302122031011,25.664957137996826]]]]}},
{"type":"Feature","properties":{"fid":44,"nombre_zona":"vigilancia","tipo_edificio":"Edificio"},"geometry":{"type":"MultiPolygon","coordinates":[[[[-100.242688112538374,25.664713287695083],[-100.242594253531777,25.665172491516344],[-100.242701354794008,25.665190276095089],[-100.242795213800605,25.664731072342317],[-100.242688112538374,25.664713287695083]]]]}}
]
}
