{
"type": "FeatureCollection",
"name": "entradas",
"crs": { "type": "name", "properties": { "name": "urn:ogc:def:crs:OGC:1.3:CRS84" } },
"features": [
{"type":"Feature","properties":{"fid":1,"edificio":"1","espacio":null},"geometry":{"type":"Point","coordinates":[-100.243114577398643,25.664072231800795]}},
{"type":"Feature","properties":{"fid":2,"edificio":"g","espacio":null},"geometry":{"type":"Point","coordinates":[-100.243035411928219,25.664609349677594]}},
{"type":"Feature","properties":{"fid":3,"edificio":"c","espacio":null},"geometry":{"type":"Point","coordinates":[-100.243012853400018,25.664819719348465]}},
{"type":"Feature","properties":{"fid":4,"edificio":"23","espacio":null},"geometry":{"type":"Point","coordinates":[-100.24626197332411,25.664397135545343]}},
{"type":"Feature","properties":{"fid":5,"edificio":"24","espacio":null},"geometry":{"type":"Point","coordinates":[-100.246033258958022,25.664521011259755]}},
{"type":"Feature","properties":{"fid":6,"edificio":"20","espacio":null},"geometry":{"type":"Point","coordinates":[-100.245419835330651,25.664318170508633]}},
{"type":"Feature","properties":{"fid":7,"edificio":"14","espacio":null},"geometry":{"type":"Point","coordinates":[-100.245016771606615,25.664433371605195]}},
{"type":"Feature","properties":{"fid":8,"edificio":"15","espacio":null},"geometry":{"type":"Point","coordinates":[-100.245027408998922,25.664290114705643]}},
{"type":"Feature","properties":{"fid":9,"edificio":"15","espacio":"tienda"},"geometry":{"type":"Point","coordinates":[-100.244931212746195,25.664283644091327]}},
{"type":"Feature","properties":{"fid":10,"edificio":"15","espacio":"desarrollo academico"},"geometry":{"type":"Point","coordinates":[-100.244830047461846,25.664276839236098]}},
{"type":"Feature","properties":{"fid":11,"edificio":"15","espacio":"enfermeria"},"geometry":{"type":"Point","coordinates":[-100.244740849186542,25.664269599165078]}},
{"type":"Feature","properties":{"fid":12,"edificio":"15","espacio":null},"geometry":{"type":"Point","coordinates":[-100.244690780745515,25.664266499265256]}},
{"type":"Feature","properties":{"fid":13,"edificio":"22","espacio":null},"geometry":{"type":"Point","coordinates":[-100.245741744777618,25.664930189429537]}},
{"type":"Feature","properties":{"fid":14,"edificio":"18","espacio":null},"geometry":{"type":"Point","coordinates":[-100.244637027193804,25.665110969321645]}},
{"type":"Feature","properties":{"fid":15,"edificio":"3","espacio":null},"geometry":{"type":"Point","coordinates":[-100.243360693566331,25.664577364998532]}},
{"type":"Feature","properties":{"fid":16,"edificio":"3","espacio":"sanitario"},"geometry":{"type":"Point","coordinates":[-100.243491057338531,25.664585590189233]}},
{"type":"Feature","properties":{"fid":17,"edificio":"5","espacio":null},"geometry":{"type":"Point","coordinates":[-100.24376903082451,25.664808787917583]}},
{"type":"Feature","properties":{"fid":18,"edificio":"5","espacio":"extraescolares"},"geometry":{"type":"Point","coordinates":[-100.243955888234083,25.664820889381371]}},
{"type":"Feature","properties":{"fid":19,"edificio":"6","espacio":null},"geometry":{"type":"Point","coordinates":[-100.243975879177015,25.664760169047696]}},
{"type":"Feature","properties":{"fid":20,"edificio":"7","espacio":null},"geometry":{"type":"Point","coordinates":[-100.243812827931464,25.664503611215899]}},
{"type":"Feature","properties":{"fid":21,"edificio":"8","espacio":"papeleria"},"geometry":{"type":"Point","coordinates":[-100.243677705996262,25.664259006116822]}},
{"type":"Feature","properties":{"fid":22,"edificio":"8","espacio":null},"geometry":{"type":"Point","coordinates":[-100.243838316135154,25.66426716364294]}},
{"type":"Feature","properties":{"fid":23,"edificio":"9","espacio":null},"geometry":{"type":"Point","coordinates":[-100.243754911511516,25.664052897044151]}},
{"type":"Feature","properties":{"fid":24,"edificio":"9","espacio":"sanitario"},"geometry":{"type":"Point","coordinates":[-100.244009801989989,25.664069605792271]}},
{"type":"Feature","properties":{"fid":25,"edificio":"19","espacio":null},"geometry":{"type":"Point","coordinates":[-100.245160448267669,25.664923385382497]}},
{"type":"Feature","properties":{"fid":26,"edificio":"19","espacio":null},"geometry":{"type":"Point","coordinates":[-100.245271469910918,25.66492842450754]}},
{"type":"Feature","properties":{"fid":27,"edificio":"19","espacio":null},"geometry":{"type":"Point","coordinates":[-100.245178094650669,25.665157891293401]}},
{"type":"Feature","properties":{"fid":28,"edificio":"16","espacio":null},"geometry":{"type":"Point","coordinates":[-100.245030520300674,25.664695959884128]}},
{"type":"Feature","properties":{"fid":29,"edificio":"12","espacio":null},"geometry":{"type":"Point","coordinates":[-100.244699844198763,25.663949691261312]}},
{"type":"Feature","properties":{"fid":30,"edificio":"10","espacio":"cafeteria"},"geometry":{"type":"Point","coordinates":[-100.244111083884434,25.663772244857235]}},
{"type":"Feature","properties":{"fid":31,"edificio":"11","espacio":null},"geometry":{"type":"Point","coordinates":[-100.244581739173427,25.664320623542046]}}
]
}
