{
"type": "FeatureCollection",
"name": "rutas",
"crs": { "type": "name", "properties": { "name": "urn:ogc:def:crs:OGC:1.3:CRS84" } },
"features": [
{"type":"Feature","properties":{"fid":1},"geometry":{"type":"MultiLineString","coordinates":[[[-100.245520619392693,25.664346689447164],[-100.245469551270418,25.664896295244979]]]}},
{"type":"Feature","properties":{"fid":1},"geometry":{"type":"MultiLineString","coordinates":[[[-100.245469551270418,25.664896295244979],[-100.24546846730081,25.664907961124843]]]}},
{"type":"Feature","properties":{"fid":1},"geometry":{"type":"MultiLineString","coordinates":[[[-100.24546846730081,25.664907961124843],[-100.24543628151126,25.665254349978998]]]}},
{"type":"Feature","properties":{"fid":1},"geometry":{"type":"MultiLineString","coordinates":[[[-100.24543628151126,25.665254349978998],[-100.245419877917712,25.665430887811379]]]}},
{"type":"Feature","properties":{"fid":2},"geometry":{"type":"MultiLineString","coordinates":[[[-100.24626197332411,25.664397135545343],[-100.246043712380342,25.664382134785861]]]}},
{"type":"Feature","properties":{"fid":2},"geometry":{"type":"MultiLineString","coordinates":[[[-100.246043712380342,25.664382134785861],[-100.245418262639021,25.664339148517872]]]}},
{"type":"Feature","properties":{"fid":2},"geometry":{"type":"MultiLineString","coordinates":[[[-100.245418262639021,25.664339148517872],[-100.24502554212394,25.664312157389499]]]}},
{"type":"Feature","properties":{"fid":2},"geometry":{"type":"MultiLineString","coordinates":[[[-100.24502554212394,25.664312157389499],[-100.244767292444891,25.66429440824913]]]}},
{"type":"Feature","properties":{"fid":2},"geometry":{"type":"MultiLineString","coordinates":[[[-100.244767292444891,25.66429440824913],[-100.24468878432495,25.664289012494987]]]}},
{"type":"Feature","properties":{"fid":2},"geometry":{"type":"MultiLineString","coordinates":[[[-100.24468878432495,25.664289012494987],[-100.244618685309035,25.664284194686687]]]}},
{"type":"Feature","properties":{"fid":2},"geometry":{"type":"MultiLineString","coordinates":[[[-100.244618685309035,25.664284194686687],[-100.244093879015921,25.664248125470667]]]}},
{"type":"Feature","properties":{"fid":3},"geometry":{"type":"MultiLineString","coordinates":[[[-100.24546846730081,25.664907961124843],[-100.245274095136807,25.664895314986893]]]}},
{"type":"Feature","properties":{"fid":3},"geometry":{"type":"MultiLineString","coordinates":[[[-100.245274095136807,25.664895314986893],[-100.245163245780546,25.664888102964664]]]}},
{"type":"Feature","properties":{"fid":3},"geometry":{"type":"MultiLineString","coordinates":[[[-100.245163245780546,25.664888102964664],[-100.244967399190841,25.664875360896293]]]}},
{"type":"Feature","properties":{"fid":3},"geometry":{"type":"MultiLineString","coordinates":[[[-100.244967399190841,25.664875360896293],[-100.244905044962024,25.664871304037792]]]}},
{"type":"Feature","properties":{"fid":3},"geometry":{"type":"MultiLineString","coordinates":[[[-100.244905044962024,25.664871304037792],[-100.24434159754351,25.664834645307742]]]}},
{"type":"Feature","properties":{"fid":3},"geometry":{"type":"MultiLineString","coordinates":[[[-100.24434159754351,25.664834645307742],[-100.244049535546139,25.664815643313823]]]}},
{"type":"Feature","properties":{"fid":3},"geometry":{"type":"MultiLineString","coordinates":[[[-100.244049535546139,25.664815643313823],[-100.244071940356505,25.66450812531944]]]}},
{"type":"Feature","properties":{"fid":3},"geometry":{"type":"MultiLineString","coordinates":[[[-100.244071940356505,25.66450812531944],[-100.244089091025018,25.664272722694239]]]}},
{"type":"Feature","properties":{"fid":3},"geometry":{"type":"MultiLineString","coordinates":[[[-100.244089091025018,25.664272722694239],[-100.244104216318789,25.664065119096652]]]}},
{"type":"Feature","properties":{"fid":3},"geometry":{"type":"MultiLineString","coordinates":[[[-100.244104216318789,25.664065119096652],[-100.244107355921685,25.664022026146149]]]}},
{"type":"Feature","properties":{"fid":3},"geometry":{"type":"MultiLineString","coordinates":[[[-100.244107355921685,25.664022026146149],[-100.244117557567719,25.663882002269794]]]}},
{"type":"Feature","properties":{"fid":4},"geometry":{"type":"MultiLineString","coordinates":[[[-100.244633968854899,25.664054314504632],[-100.244107355921685,25.664022026146149]]]}},
{"type":"Feature","properties":{"fid":4},"geometry":{"type":"MultiLineString","coordinates":[[[-100.244107355921685,25.664022026146149],[-100.243965474212686,25.664013316680752],[-100.243965488232959,25.664013317599824],[-100.243933033462753,25.664011325364061]]]}},
{"type":"Feature","properties":{"fid":4},"geometry":{"type":"MultiLineString","coordinates":[[[-100.243933033462753,25.664011325364061],[-100.243620171322164,25.663992098261691]]]}},
{"type":"Feature","properties":{"fid":5},"geometry":{"type":"MultiLineString","coordinates":[[[-100.243641403416632,25.663751617901379],[-100.243620171322164,25.663992098261691]]]}},
{"type":"Feature","properties":{"fid":5},"geometry":{"type":"MultiLineString","coordinates":[[[-100.243620171322164,25.663992098261691],[-100.24361654670912,25.664033154907688]]]}},
{"type":"Feature","properties":{"fid":5},"geometry":{"type":"MultiLineString","coordinates":[[[-100.24361654670912,25.664033154907688],[-100.243598058690424,25.664242557167874]]]}},
{"type":"Feature","properties":{"fid":5},"geometry":{"type":"MultiLineString","coordinates":[[[-100.243598058690424,25.664242557167874],[-100.243594433092483,25.664283622011784]]]}},
{"type":"Feature","properties":{"fid":5},"geometry":{"type":"MultiLineString","coordinates":[[[-100.243594433092483,25.664283622011784],[-100.243577795901047,25.664472060726194]]]}},
{"type":"Feature","properties":{"fid":5},"geometry":{"type":"MultiLineString","coordinates":[[[-100.243577795901047,25.664472060726194],[-100.243567945336068,25.66458363156848]]]}},
{"type":"Feature","properties":{"fid":5},"geometry":{"type":"MultiLineString","coordinates":[[[-100.243567945336068,25.66458363156848],[-100.243550571690776,25.664780411117633],[-100.243550281966961,25.664783500550161]]]}},
{"type":"Feature","properties":{"fid":5},"geometry":{"type":"MultiLineString","coordinates":[[[-100.243550281966961,25.664783500550161],[-100.243550133362348,25.664785375763707]]]}},
{"type":"Feature","properties":{"fid":6},"geometry":{"type":"MultiLineString","coordinates":[[[-100.244089091025018,25.664272722694239],[-100.243598058690424,25.664242557167874]]]}},
{"type":"Feature","properties":{"fid":7},"geometry":{"type":"MultiLineString","coordinates":[[[-100.244071940356505,25.66450812531944],[-100.243577795901047,25.664472060726194]]]}},
{"type":"Feature","properties":{"fid":8},"geometry":{"type":"MultiLineString","coordinates":[[[-100.245469551270418,25.664896295244979],[-100.245560821109734,25.66490336160334],[-100.24574287489034,25.664917456699264]]]}},
{"type":"Feature","properties":{"fid":9},"geometry":{"type":"MultiLineString","coordinates":[[[-100.24574287489034,25.664917456699264],[-100.245741744777618,25.664930189429537]]]}},
{"type":"Feature","properties":{"fid":10},"geometry":{"type":"MultiLineString","coordinates":[[[-100.246043712380342,25.664382134785861],[-100.246033258958022,25.664521011259755]]]}},
{"type":"Feature","properties":{"fid":11},"geometry":{"type":"MultiLineString","coordinates":[[[-100.245419835330651,25.664318170508633],[-100.245418262639021,25.664339148517872]]]}},
{"type":"Feature","properties":{"fid":12},"geometry":{"type":"MultiLineString","coordinates":[[[-100.24543628151126,25.665254349978998],[-100.24517095888352,25.665234018842984]]]}},
{"type":"Feature","properties":{"fid":12},"geometry":{"type":"MultiLineString","coordinates":[[[-100.24517095888352,25.665234018842984],[-100.244931998847065,25.665215707816014],[-100.244935848701857,25.665178694487619]]]}},
{"type":"Feature","properties":{"fid":12},"geometry":{"type":"MultiLineString","coordinates":[[[-100.244935848701857,25.665178694487619],[-100.244967399190841,25.664875360896293]]]}},
{"type":"Feature","properties":{"fid":13},"geometry":{"type":"MultiLineString","coordinates":[[[-100.244935848701857,25.665178694487619],[-100.244632971026562,25.665156424354262],[-100.244636456430399,25.665117365525568]]]}},
{"type":"Feature","properties":{"fid":13},"geometry":{"type":"MultiLineString","coordinates":[[[-100.244636456430399,25.665117365525568],[-100.244637027193804,25.665110969321645]]]}},
{"type":"Feature","properties":{"fid":14},"geometry":{"type":"MultiLineString","coordinates":[[[-100.244636456430399,25.665117365525568],[-100.244321737988855,25.665094696182351],[-100.24434159754351,25.664834645307742]]]}},
{"type":"Feature","properties":{"fid":15},"geometry":{"type":"MultiLineString","coordinates":[[[-100.244049535546139,25.664815643313823],[-100.243957315480756,25.66480970603553]]]}},
{"type":"Feature","properties":{"fid":15},"geometry":{"type":"MultiLineString","coordinates":[[[-100.243957315480756,25.66480970603553],[-100.243550298829035,25.664783501635767]]]}},
{"type":"Feature","properties":{"fid":15},"geometry":{"type":"MultiLineString","coordinates":[[[-100.243550298829035,25.664783501635767],[-100.243550281966961,25.664783500550161]]]}},
{"type":"Feature","properties":{"fid":16},"geometry":{"type":"MultiLineString","coordinates":[[[-100.243550281966961,25.664783500550161],[-100.243398336515085,25.664772599017027]]]}},
{"type":"Feature","properties":{"fid":16},"geometry":{"type":"MultiLineString","coordinates":[[[-100.243398336515085,25.664772599017027],[-100.243310925254846,25.664766327576796]]]}},
{"type":"Feature","properties":{"fid":16},"geometry":{"type":"MultiLineString","coordinates":[[[-100.243310925254846,25.664766327576796],[-100.243310958051396,25.664766329929833],[-100.243097606201104,25.664751022708636]]]}},
{"type":"Feature","properties":{"fid":16},"geometry":{"type":"MultiLineString","coordinates":[[[-100.243097606201104,25.664751022708636],[-100.243115243634534,25.664551146030849]]]}},
{"type":"Feature","properties":{"fid":16},"geometry":{"type":"MultiLineString","coordinates":[[[-100.243115243634534,25.664551146030849],[-100.243132881067993,25.66435126901801]]]}},
{"type":"Feature","properties":{"fid":17},"geometry":{"type":"MultiLineString","coordinates":[[[-100.243115243634534,25.664551146030849],[-100.243361462433626,25.66456881450997]]]}},
{"type":"Feature","properties":{"fid":17},"geometry":{"type":"MultiLineString","coordinates":[[[-100.243361462433626,25.66456881450997],[-100.243567945336068,25.66458363156848]]]}},
{"type":"Feature","properties":{"fid":18},"geometry":{"type":"MultiLineString","coordinates":[[[-100.243361462433626,25.66456881450997],[-100.243387955502939,25.664268819314358],[-100.243594433092483,25.664283622011784]]]}},
{"type":"Feature","properties":{"fid":19},"geometry":{"type":"MultiLineString","coordinates":[[[-100.243097606201104,25.664751022708636],[-100.24309091520179,25.664826788205623]]]}},
{"type":"Feature","properties":{"fid":19},"geometry":{"type":"MultiLineString","coordinates":[[[-100.24309091520179,25.664826788205623],[-100.243081538286177,25.664932967581393]]]}},
{"type":"Feature","properties":{"fid":null},"geometry":{"type":"MultiLineString","coordinates":[[[-100.243601698542037,25.664201330867105],[-100.243103918111345,25.664165625629636]]]}},
{"type":"Feature","properties":{"fid":20},"geometry":{"type":"MultiLineString","coordinates":[[[-100.24309091520179,25.664826788205623],[-100.243304234274873,25.664842092843575]]]}},
{"type":"Feature","properties":{"fid":20},"geometry":{"type":"MultiLineString","coordinates":[[[-100.243304234274873,25.664842092843575],[-100.243391636009804,25.66484836381467],[-100.243398336515085,25.664772599017027]]]}},
{"type":"Feature","properties":{"fid":21},"geometry":{"type":"MultiLineString","coordinates":[[[-100.244104216318789,25.664065119096652],[-100.243962046306478,25.664055800597783]]]}},
{"type":"Feature","properties":{"fid":21},"geometry":{"type":"MultiLineString","coordinates":[[[-100.243962046306478,25.664055800597783],[-100.24361654670912,25.664033154907688]]]}},
{"type":"Feature","properties":{"fid":22},"geometry":{"type":"MultiLineString","coordinates":[[[-100.243933033462753,25.664011325364061],[-100.2439550729231,25.663576539798065]]]}},
{"type":"Feature","properties":{"fid":23},"geometry":{"type":"MultiLineString","coordinates":[[[-100.24502554212394,25.664312157389499],[-100.245017454333336,25.664423935885246]]]}},
{"type":"Feature","properties":{"fid":23},"geometry":{"type":"MultiLineString","coordinates":[[[-100.245017454333336,25.664423935885246],[-100.245017455606742,25.664423918285983],[-100.245016771606615,25.664433371605195]]]}},
{"type":"Feature","properties":{"fid":24},"geometry":{"type":"MultiLineString","coordinates":[[[-100.244767292444891,25.66429440824913],[-100.244758235364245,25.664408698100935]]]}},
{"type":"Feature","properties":{"fid":24},"geometry":{"type":"MultiLineString","coordinates":[[[-100.244758235364245,25.664408698100935],[-100.244739831090428,25.664640938350843],[-100.244922382849708,25.664652691351723]]]}},
{"type":"Feature","properties":{"fid":24},"geometry":{"type":"MultiLineString","coordinates":[[[-100.244922382849708,25.664652691351723],[-100.245033382863298,25.664659837725775],[-100.245030520300674,25.664695959884128]]]}},
{"type":"Feature","properties":{"fid":25},"geometry":{"type":"MultiLineString","coordinates":[[[-100.244922382849708,25.664652691351723],[-100.244905044962024,25.664871304037792]]]}},
{"type":"Feature","properties":{"fid":26},"geometry":{"type":"MultiLineString","coordinates":[[[-100.24517095888352,25.665234018842984],[-100.245178094650669,25.665157891293401]]]}},
{"type":"Feature","properties":{"fid":27},"geometry":{"type":"MultiLineString","coordinates":[[[-100.245163245780546,25.664888102964664],[-100.245160448267669,25.664923385382497]]]}},
{"type":"Feature","properties":{"fid":28},"geometry":{"type":"MultiLineString","coordinates":[[[-100.245274095136807,25.664895314986893],[-100.245271469910918,25.66492842450754]]]}},
{"type":"Feature","properties":{"fid":29},"geometry":{"type":"MultiLineString","coordinates":[[[-100.243965488232945,25.664013317599824],[-100.243962046306478,25.664055800597783]]]}},
{"type":"Feature","properties":{"fid":30},"geometry":{"type":"MultiLineString","coordinates":[[[-100.24468878432495,25.664289012494987],[-100.244690780745515,25.664266499265256]]]}},
{"type":"Feature","properties":{"fid":31},"geometry":{"type":"MultiLineString","coordinates":[[[-100.243957315480756,25.66480970603553],[-100.243955888234083,25.664820889381371]]]}},
{"type":"Feature","properties":{"fid":32},"geometry":{"type":"MultiLineString","coordinates":[[[-100.244758235364245,25.664408698100935],[-100.245017454333336,25.664423935885246],[-100.245123010413806,25.664430140834767]]]}},
{"type":"Feature","properties":{"fid":32},"geometry":{"type":"MultiLineString","coordinates":[[[-100.245123010413806,25.664430140834767],[-100.245168612152113,25.664432821461716]]]}},
{"type":"Feature","properties":{"fid":33},"geometry":{"type":"MultiLineString","coordinates":[[[-100.245123010413806,25.664430140834767],[-100.245297142024697,25.664330824571152]]]}},
{"type":"Feature","properties":{"fid":34},"geometry":{"type":"MultiLineString","coordinates":[[[-100.244584795149848,25.664281865462907],[-100.244581739173427,25.664320623542046]]]}},
{"type":"Feature","properties":{"fid":35},"geometry":{"type":"MultiLineString","coordinates":[[[-100.243294137303209,25.6649565738017],[-100.243304234274873,25.664842092843575]]]}},
{"type":"Feature","properties":{"fid":35},"geometry":{"type":"MultiLineString","coordinates":[[[-100.243304234274873,25.664842092843575],[-100.243310958051396,25.664766329929833]]]}},
{"type":"Feature","properties":{"fid":35},"geometry":{"type":"MultiLineString","coordinates":[[[-100.243310958051396,25.664766329929833],[-100.243310925254846,25.664766327576796]]]}},
{"type":"Feature","properties":{"fid":36},"geometry":{"type":"MultiLineString","coordinates":[[[-100.24470873024201,25.663957276553568],[-100.244640599953584,25.663954579701958]]]}},
{"type":"Feature","properties":{"fid":37},"geometry":{"type":"MultiLineString","coordinates":[[[-100.244618685309035,25.664284194686687],[-100.244640599953584,25.663954579701958]]]}},
{"type":"Feature","properties":{"fid":null},"geometry":{"type":"MultiLineString","coordinates":[[[-100.243361462433626,25.66456881450997],[-100.243360693566331,25.664577364998532]]]}},
{"type":"Feature","properties":{"fid":null},"geometry":{"type":"MultiLineString","coordinates":[[[-100.24367858519139,25.66424750414259],[-100.243677705996262,25.664259006116822]]]}},
{"type":"Feature","properties":{"fid":null},"geometry":{"type":"MultiLineString","coordinates":[[[-100.244010656425743,25.664058986736308],[-100.244009801989989,25.664069605792271]]]}},
{"type":"Feature","properties":{"fid":null},"geometry":{"type":"MultiLineString","coordinates":[[[-100.243755746960886,25.664042278756067],[-100.243754911511516,25.664052897044151]]]}},
{"type":"Feature","properties":{"fid":null},"geometry":{"type":"MultiLineString","coordinates":[[[-100.244699491798301,25.663956910861415],[-100.244699844198763,25.663949691261312]]]}},
{"type":"Feature","properties":{"fid":null},"geometry":{"type":"MultiLineString","coordinates":[[[-100.244738907648909,25.664292457401519],[-100.244740849186542,25.664269599165078]]]}},
{"type":"Feature","properties":{"fid":null},"geometry":{"type":"MultiLineString","coordinates":[[[-100.244828186372047,25.66429859340408],[-100.244830047461846,25.664276839236098]]]}},
{"type":"Feature","properties":{"fid":null},"geometry":{"type":"MultiLineString","coordinates":[[[-100.24502554212394,25.664312157389499],[-100.245027408998922,25.664290114705643]]]}},
{"type":"Feature","properties":{"fid":null},"geometry":{"type":"MultiLineString","coordinates":[[[-100.244929360464411,25.664305546958452],[-100.244931212746195,25.664283644091327]]]}},
{"type":"Feature","properties":{"fid":null},"geometry":{"type":"MultiLineString","coordinates":[[[-100.243769925079988,25.664797641534818],[-100.24376903082451,25.664808787917583]]]}},
{"type":"Feature","properties":{"fid":null},"geometry":{"type":"MultiLineString","coordinates":[[[-100.24349170568928,25.664578160668711],[-100.243491057338531,25.664585590189233]]]}},
{"type":"Feature","properties":{"fid":null},"geometry":{"type":"MultiLineString","coordinates":[[[-100.243945497696203,25.663765436199117],[-100.244111083884434,25.663772244857235]]]}},
{"type":"Feature","properties":{"fid":null},"geometry":{"type":"MultiLineString","coordinates":[[[-100.243103918111345,25.664165625629636],[-100.243114577398643,25.664072231800795]]]}},
{"type":"Feature","properties":{"fid":null},"geometry":{"type":"MultiLineString","coordinates":[[[-100.243838316135154,25.66426716364294],[-100.243838870626135,25.664257350937554]]]}},
{"type":"Feature","properties":{"fid":null},"geometry":{"type":"MultiLineString","coordinates":[[[-100.243812827931464,25.664503611215899],[-100.243814115225334,25.664489308235265]]]}},
{"type":"Feature","properties":{"fid":null},"geometry":{"type":"MultiLineString","coordinates":[[[-100.243975879177015,25.664760169047696],[-100.24397238338193,25.664810676131616]]]}},
{"type":"Feature","properties":{"fid":null},"geometry":{"type":"MultiLineString","coordinates":[[[-100.243090915201776,25.66482678820562],[-100.243012853400018,25.664819719348465]]]}},
{"type":"Feature","properties":{"fid":null},"geometry":{"type":"MultiLineString","coordinates":[[[-100.243109752551533,25.664613373909244],[-100.243035411928219,25.664609349677594]]]}}
]
}
